{"type":"Feature","properties":{"name":"Parc naturel régional de la Brenne","source":"OpenStreetMap, relation 4287018","osmTimestamp":"2026-10-10T10:12:12Z","attribution":"© OpenStreetMap contributors","license":"ODbL 1.0 (https://opendatacommons.org/licenses/odbl/1-0/)","simplification":"Douglas-Peucker 0.0002° (environ 20 m)"},"geometry":{"type":"Polygon","coordinates":[[[0.87827,46.74044],[0.87823,46.74176],[0.87701,46.74298],[0.87451,46.74447],[0.87023,46.74552],[0.86711,46.74873],[0.87618,46.751],[0.88002,46.75239],[0.88172,46.75322],[0.88436,46.7551],[0.89763,46.75644],[0.90475,46.75403],[0.9046,46.7577],[0.90583,46.75888],[0.91027,46.75785],[0.91326,46.75656],[0.91706,46.75635],[0.91875,46.7557],[0.92379,46.75679],[0.92518,46.75739],[0.9277,46.75703],[0.93027,46.75554],[0.93336,46.75314],[0.93499,46.75139],[0.93493,46.74986],[0.93668,46.74663],[0.94036,46.7433],[0.94256,46.7407],[0.94362,46.73899],[0.94423,46.73703],[0.94773,46.73666],[0.9483,46.73709],[0.94919,46.73677],[0.95,46.73725],[0.94939,46.73778],[0.94997,46.73838],[0.95363,46.7367],[0.95368,46.73712],[0.95619,46.7371],[0.95922,46.73813],[0.96114,46.73964],[0.96071,46.74029],[0.96271,46.74131],[0.96251,46.74198],[0.9652,46.74449],[0.96564,46.74601],[0.9651,46.74794],[0.97032,46.75032],[0.97223,46.75266],[0.9779,46.75425],[0.97982,46.75434],[0.97946,46.75608],[0.98027,46.75943],[0.98312,46.76425],[0.98864,46.76169],[1.01242,46.75781],[1.01163,46.75948],[1.01146,46.76093],[1.01131,46.76652],[1.01162,46.76682],[1.005,46.77257],[1.00196,46.77792],[0.99909,46.78121],[1.00061,46.78255],[1.00258,46.78537],[1.00473,46.78655],[1.00413,46.78842],[1.00484,46.79073],[1.00406,46.79228],[1.00395,46.79335],[1.00227,46.79467],[0.99755,46.79398],[0.99753,46.7944],[0.99571,46.79423],[0.99133,46.79731],[0.99085,46.79697],[0.98727,46.79818],[0.98384,46.8037],[0.98595,46.80347],[0.9862,46.80469],[0.98803,46.80492],[0.98966,46.80555],[0.9921,46.80562],[0.99462,46.80731],[0.99559,46.81021],[0.99791,46.81175],[1.00226,46.81371],[1.00244,46.81355],[1.00318,46.81415],[1.00446,46.8133],[1.00545,46.81156],[1.00664,46.81082],[1.00843,46.81335],[1.01033,46.8145],[1.01039,46.81485],[1.00895,46.81622],[1.00892,46.81849],[1.0084,46.81934],[1.00704,46.82046],[1.00657,46.82257],[1.00911,46.83067],[1.01003,46.83178],[1.00928,46.83232],[1.00891,46.83344],[1.00961,46.83629],[1.01213,46.83954],[1.01577,46.84307],[1.01576,46.84362],[1.017,46.84368],[1.01777,46.84453],[1.02132,46.84497],[1.02268,46.84567],[1.02135,46.84704],[1.02058,46.84843],[1.01853,46.84992],[1.01784,46.85091],[1.0169,46.85128],[1.01693,46.85347],[1.01642,46.85558],[1.01732,46.8562],[1.0175,46.85704],[1.01808,46.85773],[1.02123,46.86055],[1.02274,46.8639],[1.02237,46.86463],[1.02254,46.86615],[1.02344,46.86757],[1.02604,46.87547],[1.0266,46.87834],[1.02508,46.87973],[1.02531,46.87977],[1.034,46.90801],[1.03373,46.90821],[1.03397,46.90854],[1.03373,46.91032],[1.03279,46.91369],[1.03562,46.92288],[1.03637,46.92417],[1.03751,46.92777],[1.03727,46.93069],[1.03746,46.9319],[1.03783,46.93224],[1.03673,46.93314],[1.03615,46.9342],[1.0366,46.9358],[1.03583,46.93845],[1.03583,46.94022],[1.03737,46.94128],[1.03719,46.94227],[1.03854,46.942],[1.03887,46.94244],[1.04515,46.94542],[1.04677,46.94323],[1.0495,46.94121],[1.04978,46.93996],[1.05167,46.93964],[1.05979,46.93656],[1.06591,46.93586],[1.0684,46.93458],[1.07226,46.93349],[1.07438,46.93365],[1.07481,46.93303],[1.07609,46.93283],[1.08044,46.92995],[1.08332,46.9202],[1.08844,46.91513],[1.08843,46.91444],[1.08884,46.91378],[1.0897,46.9137],[1.09003,46.91319],[1.0906,46.91307],[1.09133,46.91183],[1.09308,46.91186],[1.09377,46.9116],[1.09399,46.91117],[1.09625,46.91068],[1.09744,46.90985],[1.10087,46.90851],[1.10243,46.90859],[1.10334,46.90815],[1.10486,46.90923],[1.10816,46.90937],[1.11061,46.9084],[1.11219,46.90801],[1.11337,46.90813],[1.11483,46.90748],[1.12014,46.9082],[1.12404,46.90628],[1.12574,46.90494],[1.12804,46.90405],[1.13029,46.90422],[1.13224,46.9052],[1.13219,46.90617],[1.13352,46.90865],[1.13374,46.9101],[1.13756,46.90871],[1.14034,46.90864],[1.14429,46.90788],[1.14649,46.90308],[1.14768,46.89894],[1.15117,46.89136],[1.15639,46.89333],[1.15921,46.89135],[1.16034,46.88807],[1.16178,46.88649],[1.16319,46.88623],[1.1659,46.88441],[1.16664,46.88627],[1.16854,46.88827],[1.16836,46.88864],[1.16946,46.89002],[1.1702,46.89209],[1.17138,46.89381],[1.1711,46.89542],[1.17135,46.89697],[1.17278,46.89834],[1.17359,46.89963],[1.17358,46.90077],[1.17447,46.90257],[1.17631,46.90423],[1.17879,46.90472],[1.17942,46.90528],[1.18083,46.90892],[1.18389,46.91133],[1.18752,46.9118],[1.19103,46.9127],[1.19135,46.91361],[1.20113,46.91105],[1.20505,46.9106],[1.20785,46.90967],[1.21043,46.91067],[1.21161,46.9122],[1.21389,46.91193],[1.22002,46.90803],[1.22236,46.90562],[1.22273,46.90384],[1.22257,46.90202],[1.22318,46.89977],[1.2253,46.89742],[1.22566,46.89623],[1.23891,46.89709],[1.24362,46.89698],[1.25223,46.89466],[1.2571,46.89604],[1.259,46.89284],[1.25997,46.89042],[1.2626,46.88787],[1.2651,46.88379],[1.26613,46.88294],[1.26703,46.8811],[1.26767,46.88102],[1.26814,46.88003],[1.2699,46.87813],[1.27807,46.88121],[1.28827,46.87922],[1.29114,46.88065],[1.2924,46.88199],[1.29835,46.8831],[1.30085,46.88177],[1.30362,46.88309],[1.30476,46.88333],[1.30729,46.88111],[1.3102,46.88245],[1.31556,46.88296],[1.31726,46.8842],[1.31871,46.88472],[1.32098,46.88487],[1.3256,46.88391],[1.32712,46.88648],[1.32918,46.88794],[1.32965,46.89037],[1.33336,46.88969],[1.33677,46.88949],[1.33768,46.88901],[1.3406,46.88907],[1.34276,46.8887],[1.34451,46.88711],[1.34545,46.88692],[1.3496,46.8871],[1.35392,46.88679],[1.35901,46.88539],[1.38078,46.88728],[1.38024,46.88468],[1.37464,46.88029],[1.37383,46.8802],[1.37173,46.87919],[1.37255,46.87839],[1.3709,46.8759],[1.37083,46.87555],[1.37143,46.87466],[1.3697,46.87215],[1.37124,46.87071],[1.37025,46.86965],[1.37484,46.8651],[1.37311,46.86405],[1.37543,46.86266],[1.37639,46.86325],[1.37697,46.86299],[1.37739,46.86248],[1.37679,46.86183],[1.37847,46.86043],[1.37793,46.86007],[1.37905,46.85934],[1.37802,46.85914],[1.37696,46.85759],[1.37372,46.85544],[1.37453,46.8545],[1.37385,46.85366],[1.37362,46.85379],[1.37033,46.85244],[1.37006,46.85096],[1.37117,46.85137],[1.37188,46.85043],[1.37072,46.84995],[1.37075,46.84964],[1.37149,46.8489],[1.37417,46.8483],[1.37547,46.84895],[1.37712,46.84712],[1.37634,46.84621],[1.38098,46.84368],[1.38225,46.84256],[1.3856,46.84387],[1.38786,46.84215],[1.39309,46.83947],[1.39948,46.83715],[1.39909,46.83565],[1.40079,46.83494],[1.40044,46.83459],[1.40397,46.83293],[1.40496,46.83185],[1.40545,46.83046],[1.40941,46.83215],[1.41422,46.82579],[1.41602,46.82468],[1.42057,46.82377],[1.4228,46.82698],[1.42188,46.82825],[1.42219,46.82938],[1.42506,46.82964],[1.42702,46.82909],[1.42673,46.82779],[1.42608,46.82683],[1.42512,46.82636],[1.42549,46.8257],[1.42587,46.8254],[1.42925,46.826],[1.43115,46.82421],[1.43419,46.82224],[1.43331,46.82096],[1.43331,46.82046],[1.43443,46.81991],[1.43464,46.8174],[1.43655,46.81484],[1.43671,46.81188],[1.43616,46.81068],[1.43546,46.81013],[1.43654,46.81029],[1.43687,46.80793],[1.43504,46.80752],[1.43567,46.80543],[1.43757,46.8057],[1.43953,46.80558],[1.43997,46.80568],[1.4405,46.8065],[1.44189,46.8066],[1.44354,46.80604],[1.44508,46.80593],[1.44727,46.80783],[1.44902,46.80867],[1.44988,46.81052],[1.45358,46.80935],[1.45522,46.81095],[1.46028,46.80809],[1.46327,46.80713],[1.46319,46.80661],[1.46724,46.80656],[1.46893,46.80594],[1.4728,46.80848],[1.47613,46.80984],[1.47881,46.81145],[1.48212,46.8062],[1.48186,46.80608],[1.48254,46.80458],[1.48226,46.8034],[1.48295,46.80029],[1.48284,46.79921],[1.48424,46.79664],[1.48488,46.79748],[1.48598,46.7977],[1.48673,46.79732],[1.49066,46.79706],[1.49071,46.79659],[1.49524,46.79621],[1.49531,46.79516],[1.49805,46.79521],[1.49757,46.79596],[1.49756,46.79636],[1.49789,46.79636],[1.50171,46.7957],[1.50176,46.79486],[1.50317,46.79521],[1.50475,46.79463],[1.50724,46.79453],[1.50872,46.792],[1.50784,46.79176],[1.5095,46.78908],[1.51158,46.7873],[1.51418,46.78652],[1.51684,46.78478],[1.51697,46.78379],[1.51623,46.78137],[1.51907,46.77762],[1.5187,46.77706],[1.51905,46.77603],[1.52009,46.77464],[1.52027,46.77326],[1.51996,46.77259],[1.52048,46.77177],[1.52213,46.77108],[1.52427,46.76944],[1.52748,46.7646],[1.52682,46.76323],[1.52584,46.76301],[1.52581,46.76149],[1.52724,46.75993],[1.53194,46.75816],[1.53256,46.75698],[1.53399,46.75687],[1.53555,46.75632],[1.53717,46.75433],[1.54043,46.75488],[1.54097,46.75439],[1.54318,46.75534],[1.54614,46.75424],[1.55593,46.75413],[1.56692,46.7507],[1.56826,46.75011],[1.56934,46.74836],[1.57868,46.73881],[1.57927,46.73659],[1.58056,46.73701],[1.58369,46.73892],[1.58613,46.73947],[1.59312,46.74189],[1.59759,46.74598],[1.59939,46.74722],[1.60499,46.74771],[1.60859,46.74964],[1.61343,46.75037],[1.61439,46.75086],[1.6153,46.75065],[1.61376,46.75001],[1.61062,46.74607],[1.61232,46.74499],[1.61309,46.74538],[1.61377,46.74483],[1.61509,46.74341],[1.61487,46.74238],[1.61765,46.74266],[1.61486,46.74196],[1.61488,46.74134],[1.61356,46.74028],[1.61193,46.73744],[1.61075,46.73714],[1.61001,46.73497],[1.60921,46.73384],[1.60941,46.73371],[1.60828,46.73284],[1.60577,46.72918],[1.60197,46.72501],[1.60289,46.72297],[1.59102,46.70931],[1.58893,46.70437],[1.58996,46.70389],[1.58926,46.70354],[1.59102,46.69986],[1.58957,46.70019],[1.58952,46.69987],[1.58719,46.70009],[1.58415,46.69273],[1.57963,46.69202],[1.57684,46.69227],[1.57635,46.69462],[1.57274,46.69526],[1.57256,46.69755],[1.57176,46.69776],[1.56788,46.69753],[1.561,46.698],[1.56147,46.69417],[1.55655,46.69214],[1.55693,46.69182],[1.55223,46.6916],[1.53865,46.68974],[1.53204,46.68827],[1.53218,46.68795],[1.53047,46.68712],[1.52972,46.68541],[1.52813,46.68403],[1.51754,46.68787],[1.50727,46.68998],[1.50499,46.68902],[1.49883,46.68894],[1.49785,46.68859],[1.49292,46.68518],[1.4886,46.68322],[1.48491,46.68031],[1.48345,46.67883],[1.48211,46.67625],[1.47848,46.67136],[1.47084,46.66493],[1.465,46.6622],[1.46315,46.66025],[1.46012,46.65799],[1.45936,46.65699],[1.45586,46.65532],[1.45415,46.65359],[1.45208,46.65255],[1.45126,46.65148],[1.45024,46.65079],[1.449,46.64883],[1.4446,46.64543],[1.44159,46.64185],[1.44125,46.64101],[1.44233,46.64128],[1.44179,46.64093],[1.44308,46.64053],[1.44256,46.64022],[1.44223,46.63946],[1.44142,46.63943],[1.44103,46.63908],[1.44004,46.63753],[1.44242,46.63625],[1.44647,46.6353],[1.44934,46.63408],[1.46012,46.62697],[1.46405,46.6257],[1.4657,46.62571],[1.47118,46.62483],[1.47289,46.62309],[1.47605,46.6211],[1.47812,46.61998],[1.48069,46.61928],[1.47591,46.61579],[1.4751,46.61463],[1.47236,46.61344],[1.46433,46.60792],[1.46464,46.60539],[1.46612,46.60429],[1.46691,46.60411],[1.46502,46.60168],[1.46359,46.60145],[1.46293,46.601],[1.46248,46.60138],[1.46201,46.60131],[1.45928,46.6003],[1.45872,46.59948],[1.45887,46.59755],[1.45449,46.59677],[1.45156,46.59432],[1.45077,46.59442],[1.44936,46.59554],[1.44619,46.595],[1.44713,46.59322],[1.44807,46.59303],[1.4481,46.59268],[1.44661,46.59145],[1.44616,46.59034],[1.44656,46.58998],[1.44492,46.59026],[1.44434,46.58802],[1.44476,46.5879],[1.44495,46.58738],[1.44464,46.58684],[1.44387,46.58645],[1.44394,46.58569],[1.44495,46.58493],[1.45027,46.58376],[1.45102,46.58179],[1.45046,46.57978],[1.45061,46.57903],[1.44932,46.57784],[1.44854,46.57625],[1.44858,46.57507],[1.44684,46.57101],[1.44971,46.56218],[1.46164,46.56655],[1.46788,46.5679],[1.48021,46.56329],[1.48764,46.5623],[1.49968,46.55281],[1.49387,46.54867],[1.49229,46.54705],[1.48584,46.54325],[1.48458,46.54209],[1.48408,46.5414],[1.48398,46.54054],[1.48399,46.53752],[1.48446,46.53694],[1.48431,46.53644],[1.48333,46.53569],[1.48318,46.53431],[1.48372,46.53395],[1.48398,46.53097],[1.48448,46.52963],[1.48398,46.52782],[1.48423,46.52478],[1.48622,46.52144],[1.49673,46.5161],[1.50278,46.50545],[1.50636,46.50204],[1.51064,46.50467],[1.51145,46.49971],[1.51093,46.49536],[1.50835,46.49061],[1.50683,46.48708],[1.50659,46.48587],[1.50605,46.48557],[1.50615,46.48474],[1.50451,46.48326],[1.50658,46.48156],[1.50226,46.48037],[1.50674,46.47506],[1.50678,46.47424],[1.50959,46.47322],[1.50981,46.47236],[1.51041,46.47207],[1.51082,46.47129],[1.50935,46.47067],[1.51037,46.46924],[1.51107,46.46883],[1.51075,46.46728],[1.50949,46.46706],[1.50865,46.46624],[1.50884,46.46562],[1.50845,46.46429],[1.50998,46.46319],[1.50893,46.46229],[1.50841,46.4608],[1.50719,46.46062],[1.50711,46.46024],[1.50494,46.46017],[1.50354,46.45952],[1.50253,46.45966],[1.50203,46.46108],[1.50236,46.46179],[1.49969,46.46308],[1.49852,46.46458],[1.49799,46.46475],[1.49692,46.46454],[1.49595,46.46367],[1.4953,46.46353],[1.49389,46.46409],[1.49123,46.46441],[1.49046,46.46425],[1.4892,46.46329],[1.48821,46.46314],[1.48662,46.46343],[1.48612,46.46576],[1.48514,46.46637],[1.48546,46.46703],[1.48299,46.46865],[1.48202,46.46844],[1.47874,46.46878],[1.47818,46.47009],[1.47858,46.47082],[1.47764,46.47215],[1.47645,46.47191],[1.47598,46.47117],[1.47551,46.47101],[1.47392,46.47117],[1.47328,46.47154],[1.47319,46.472],[1.47407,46.47344],[1.47483,46.47389],[1.4745,46.47635],[1.47227,46.47611],[1.47059,46.47776],[1.47135,46.47791],[1.47084,46.4789],[1.46887,46.47905],[1.4671,46.4797],[1.4658,46.48173],[1.46543,46.48533],[1.46454,46.48619],[1.46321,46.48656],[1.46382,46.48817],[1.46078,46.48854],[1.46004,46.48838],[1.45783,46.48892],[1.45596,46.48985],[1.45673,46.49013],[1.45781,46.49167],[1.45851,46.49428],[1.45941,46.4956],[1.45805,46.49595],[1.45757,46.49669],[1.45671,46.49632],[1.44305,46.4971],[1.43936,46.49153],[1.43965,46.49117],[1.43893,46.49103],[1.4372,46.48989],[1.43749,46.48852],[1.43837,46.48736],[1.4352,46.48082],[1.43339,46.47875],[1.4321,46.47802],[1.4314,46.47843],[1.4287,46.4769],[1.42935,46.47649],[1.42722,46.47489],[1.42444,46.47389],[1.42461,46.47363],[1.42431,46.47345],[1.42352,46.47349],[1.42,46.47492],[1.4134,46.47608],[1.41372,46.47654],[1.41264,46.47692],[1.4075,46.47714],[1.40634,46.47686],[1.40355,46.4775],[1.40166,46.47729],[1.39937,46.47762],[1.39701,46.47898],[1.3957,46.47902],[1.39352,46.48057],[1.39183,46.48081],[1.39155,46.48149],[1.38996,46.48112],[1.38948,46.48129],[1.38773,46.484],[1.38766,46.48515],[1.38681,46.48595],[1.38726,46.48718],[1.38698,46.48731],[1.38694,46.4881],[1.38616,46.48847],[1.38551,46.48968],[1.38626,46.49051],[1.38632,46.49119],[1.38575,46.49214],[1.38491,46.49276],[1.38352,46.49157],[1.38144,46.4911],[1.38068,46.48955],[1.37939,46.48826],[1.37923,46.48724],[1.37842,46.48595],[1.375,46.48428],[1.37267,46.48206],[1.37177,46.48221],[1.37186,46.48158],[1.36842,46.48111],[1.36898,46.48007],[1.36666,46.48006],[1.36657,46.47886],[1.36493,46.47945],[1.36445,46.47994],[1.36401,46.47959],[1.36275,46.48016],[1.36156,46.47986],[1.36191,46.47961],[1.36148,46.47903],[1.35869,46.4788],[1.35837,46.47811],[1.35728,46.47793],[1.35547,46.47592],[1.35261,46.47445],[1.35276,46.47392],[1.35169,46.47365],[1.34902,46.47195],[1.34803,46.47047],[1.34948,46.46958],[1.34787,46.46857],[1.34665,46.46715],[1.346,46.46566],[1.34485,46.46479],[1.34519,46.46349],[1.34422,46.46253],[1.3453,46.46144],[1.34378,46.46086],[1.34421,46.46022],[1.34275,46.45876],[1.3431,46.45641],[1.33196,46.45395],[1.32508,46.45383],[1.3226,46.45313],[1.3213,46.45322],[1.32069,46.45383],[1.32246,46.45608],[1.32245,46.45708],[1.32276,46.45766],[1.32216,46.46028],[1.32272,46.46123],[1.32115,46.46258],[1.3203,46.46378],[1.3206,46.46419],[1.31928,46.4649],[1.31951,46.46528],[1.31944,46.46687],[1.32035,46.46801],[1.31961,46.46906],[1.32048,46.46943],[1.3201,46.47139],[1.32022,46.47188],[1.32075,46.4719],[1.32092,46.47255],[1.31986,46.47299],[1.31917,46.47382],[1.31867,46.47356],[1.31735,46.47362],[1.31454,46.47222],[1.31137,46.47117],[1.3068,46.47085],[1.30473,46.47097],[1.30325,46.47291],[1.30217,46.47241],[1.30195,46.47186],[1.30046,46.4717],[1.30008,46.47103],[1.30011,46.46929],[1.2989,46.46931],[1.29809,46.46995],[1.2973,46.4719],[1.29634,46.4728],[1.29622,46.47329],[1.29683,46.47409],[1.29528,46.47623],[1.29491,46.47772],[1.29377,46.47825],[1.29225,46.47819],[1.29225,46.47947],[1.2909,46.47921],[1.29009,46.4799],[1.28821,46.48022],[1.28689,46.48095],[1.28562,46.48106],[1.28401,46.48336],[1.28364,46.48466],[1.28223,46.48534],[1.28141,46.48531],[1.27789,46.48753],[1.27773,46.48832],[1.27679,46.4884],[1.27594,46.48892],[1.27329,46.4887],[1.27304,46.48892],[1.27317,46.48931],[1.27287,46.48942],[1.27227,46.48864],[1.27194,46.48938],[1.27055,46.48972],[1.27009,46.48892],[1.27296,46.48415],[1.27233,46.48328],[1.27066,46.48162],[1.2697,46.4815],[1.26925,46.48107],[1.26666,46.4802],[1.26609,46.47951],[1.26352,46.47816],[1.26075,46.4758],[1.25989,46.47556],[1.25883,46.47253],[1.25732,46.4725],[1.25602,46.47197],[1.26328,46.46486],[1.26878,46.46168],[1.27177,46.45902],[1.27357,46.45891],[1.27481,46.45758],[1.27445,46.45721],[1.26938,46.45916],[1.26924,46.45836],[1.26855,46.45831],[1.26683,46.45875],[1.26024,46.45913],[1.26038,46.45864],[1.25978,46.45755],[1.25858,46.4571],[1.25721,46.45719],[1.25603,46.45672],[1.25376,46.45453],[1.2542,46.45429],[1.25281,46.45174],[1.25146,46.45255],[1.2503,46.45274],[1.24916,46.45413],[1.24778,46.45434],[1.2471,46.45477],[1.24351,46.45152],[1.24264,46.45042],[1.24168,46.44822],[1.24058,46.44774],[1.24126,46.44749],[1.24107,46.44724],[1.2404,46.44745],[1.23956,46.44649],[1.23909,46.44638],[1.2394,46.44596],[1.23796,46.44504],[1.23691,46.4448],[1.23453,46.44232],[1.23436,46.44246],[1.23345,46.44097],[1.23144,46.44138],[1.22755,46.44046],[1.22622,46.44127],[1.2235,46.44107],[1.22005,46.43919],[1.21705,46.43661],[1.22351,46.43567],[1.2276,46.43284],[1.22702,46.43212],[1.22727,46.43104],[1.22823,46.42993],[1.22965,46.42726],[1.22899,46.42592],[1.22853,46.42575],[1.22939,46.42516],[1.22871,46.42412],[1.22834,46.42252],[1.22764,46.42227],[1.2281,46.42084],[1.22797,46.4199],[1.22929,46.41903],[1.22894,46.41857],[1.23044,46.41773],[1.23122,46.4166],[1.2308,46.41609],[1.23188,46.4146],[1.23171,46.41381],[1.23305,46.41229],[1.23233,46.41085],[1.23297,46.40968],[1.23284,46.40943],[1.23455,46.40855],[1.23454,46.40826],[1.23538,46.40829],[1.23493,46.40758],[1.23645,46.40715],[1.23856,46.40274],[1.24064,46.40225],[1.24074,46.40254],[1.24305,46.40187],[1.24347,46.40096],[1.24325,46.40047],[1.24366,46.39998],[1.24127,46.39916],[1.24053,46.39933],[1.23634,46.39383],[1.22767,46.39614],[1.22713,46.39523],[1.22592,46.39419],[1.2215,46.39139],[1.22079,46.39],[1.21579,46.38915],[1.21304,46.38792],[1.20999,46.38985],[1.20924,46.38958],[1.2092,46.3893],[1.20562,46.38821],[1.2019,46.38468],[1.19808,46.38205],[1.19472,46.38058],[1.19436,46.37997],[1.19345,46.38062],[1.19193,46.3802],[1.19146,46.37935],[1.19317,46.37794],[1.19242,46.37674],[1.18863,46.37651],[1.18814,46.37724],[1.18618,46.37783],[1.18476,46.37767],[1.18231,46.37601],[1.18161,46.37734],[1.18168,46.37802],[1.18123,46.37808],[1.18083,46.37883],[1.18105,46.38074],[1.18059,46.38184],[1.17962,46.38215],[1.17715,46.38399],[1.19692,46.40148],[1.1934,46.40417],[1.19209,46.40563],[1.19342,46.4097],[1.1967,46.41167],[1.1969,46.41265],[1.2,46.41757],[1.20468,46.42181],[1.20634,46.42218],[1.20664,46.42462],[1.20778,46.42627],[1.20863,46.4262],[1.20905,46.42659],[1.20948,46.42726],[1.2091,46.42767],[1.21015,46.42821],[1.21062,46.42914],[1.21111,46.4293],[1.21319,46.43311],[1.21252,46.43322],[1.21202,46.43276],[1.21086,46.43362],[1.20806,46.43472],[1.20317,46.43463],[1.20126,46.43251],[1.2006,46.43098],[1.19862,46.43183],[1.19743,46.43027],[1.19666,46.43049],[1.19594,46.42926],[1.19478,46.42946],[1.1949,46.4298],[1.19384,46.42959],[1.19384,46.42884],[1.18691,46.42819],[1.1836,46.42937],[1.18377,46.43061],[1.18414,46.43085],[1.18429,46.43174],[1.18526,46.43355],[1.18537,46.43476],[1.18621,46.43551],[1.1864,46.43846],[1.18692,46.43979],[1.18655,46.44002],[1.18637,46.44113],[1.1843,46.44129],[1.17602,46.44396],[1.1755,46.44296],[1.1727,46.44437],[1.174,46.44455],[1.168,46.4464],[1.16016,46.4472],[1.15746,46.44778],[1.15654,46.44687],[1.15112,46.44885],[1.15135,46.44938],[1.13543,46.47016],[1.13506,46.47111],[1.15163,46.47017],[1.15371,46.46947],[1.15769,46.46955],[1.15705,46.47051],[1.15335,46.47282],[1.14832,46.47797],[1.14151,46.48412],[1.1392,46.48701],[1.13826,46.48906],[1.13627,46.49163],[1.13595,46.49295],[1.13343,46.49747],[1.13337,46.49804],[1.13552,46.49816],[1.13876,46.49709],[1.14012,46.49716],[1.14882,46.5021],[1.14602,46.50578],[1.1235,46.52203],[1.11098,46.52826],[1.10801,46.53176],[1.105,46.53317],[1.0954,46.53667],[1.09093,46.53791],[1.08911,46.5378],[1.08789,46.53831],[1.07814,46.53511],[1.07759,46.53557],[1.07747,46.53615],[1.07471,46.53744],[1.07324,46.5376],[1.07101,46.53714],[1.0703,46.5373],[1.06965,46.53753],[1.06886,46.53873],[1.0683,46.53899],[1.0664,46.53814],[1.06549,46.53979],[1.06407,46.53963],[1.06065,46.53846],[1.06046,46.53876],[1.06025,46.5384],[1.05436,46.53741],[1.0535,46.53828],[1.05059,46.53608],[1.04831,46.53657],[1.04035,46.537],[1.03822,46.53745],[1.03806,46.53712],[1.03343,46.53699],[1.03301,46.53739],[1.02342,46.53601],[1.02252,46.53611],[1.02029,46.53733],[1.02048,46.53817],[1.0197,46.54041],[1.02005,46.542],[1.02294,46.54668],[1.02426,46.54827],[1.02481,46.54952],[1.02326,46.55162],[1.02279,46.55318],[1.02121,46.55482],[1.0198,46.55739],[1.01915,46.558],[1.01867,46.56185],[1.01903,46.56374],[1.01873,46.56442],[1.01733,46.56584],[1.01412,46.56808],[1.00971,46.5675],[1.00876,46.56709],[1.00768,46.56742],[1.00293,46.56726],[0.99657,46.56601],[0.99282,46.56624],[0.98918,46.56518],[0.98727,46.56558],[0.98632,46.56697],[0.98353,46.56699],[0.98389,46.56793],[0.98496,46.56845],[0.98555,46.57009],[0.9849,46.5711],[0.98223,46.5722],[0.98194,46.57359],[0.98119,46.57323],[0.979,46.57324],[0.97672,46.57436],[0.9739,46.57464],[0.96656,46.57303],[0.96382,46.57162],[0.96364,46.57213],[0.96166,46.57293],[0.9605,46.57421],[0.95978,46.57431],[0.95809,46.57566],[0.9575,46.57694],[0.95737,46.5781],[0.95428,46.57833],[0.95339,46.57901],[0.95143,46.57838],[0.94888,46.57856],[0.94547,46.5805],[0.94126,46.58098],[0.93705,46.58624],[0.93531,46.58627],[0.9345,46.58781],[0.93639,46.58912],[0.93758,46.59286],[0.9377,46.59457],[0.93525,46.59499],[0.93242,46.59461],[0.92234,46.59463],[0.91954,46.59595],[0.91601,46.59667],[0.9161,46.59939],[0.91275,46.60119],[0.91055,46.60191],[0.9112,46.60354],[0.90999,46.60451],[0.90908,46.60467],[0.90774,46.60769],[0.9094,46.6085],[0.90915,46.60886],[0.90927,46.60999],[0.90845,46.61239],[0.90859,46.61405],[0.90438,46.61442],[0.9049,46.61742],[0.90688,46.62004],[0.90533,46.62052],[0.90444,46.61955],[0.9034,46.61983],[0.90149,46.61937],[0.90208,46.62061],[0.89972,46.62145],[0.89854,46.6231],[0.89972,46.62328],[0.90028,46.62412],[0.89955,46.62445],[0.89664,46.62458],[0.89603,46.62563],[0.89425,46.62558],[0.89384,46.62664],[0.89382,46.62809],[0.89421,46.6294],[0.89609,46.633],[0.90138,46.64007],[0.90607,46.64279],[0.90719,46.64259],[0.9068,46.64395],[0.90824,46.64402],[0.90645,46.6486],[0.90919,46.64858],[0.91156,46.64937],[0.91632,46.65012],[0.91776,46.65084],[0.91681,46.6518],[0.91598,46.65435],[0.91454,46.65665],[0.90982,46.66171],[0.90688,46.66567],[0.9071,46.66631],[0.91172,46.67129],[0.91211,46.67289],[0.912,46.67438],[0.91088,46.6762],[0.91076,46.67724],[0.90923,46.67807],[0.90819,46.67826],[0.90413,46.67842],[0.90245,46.67794],[0.90231,46.67842],[0.90281,46.67986],[0.90467,46.68136],[0.90773,46.68301],[0.9083,46.68276],[0.90992,46.68288],[0.91445,46.68779],[0.91562,46.68856],[0.91661,46.68999],[0.92017,46.69174],[0.9233,46.69258],[0.92454,46.69282],[0.92674,46.69245],[0.92782,46.69265],[0.92805,46.69504],[0.92653,46.69781],[0.92524,46.69917],[0.92499,46.70004],[0.9242,46.70034],[0.92261,46.70213],[0.92034,46.70363],[0.92102,46.70391],[0.9166,46.70884],[0.91327,46.71062],[0.91313,46.7141],[0.91253,46.71432],[0.91431,46.71592],[0.90795,46.71906],[0.90922,46.71989],[0.91116,46.72203],[0.91313,46.72566],[0.91112,46.72755],[0.90883,46.72756],[0.90304,46.7306],[0.90191,46.73298],[0.90172,46.73424],[0.90202,46.73517],[0.90174,46.73641],[0.89628,46.73517],[0.89538,46.73578],[0.89494,46.73724],[0.89021,46.73721],[0.88877,46.73791],[0.88808,46.73766],[0.88677,46.738],[0.88475,46.73912],[0.88406,46.73841],[0.88209,46.73866],[0.87848,46.7384],[0.87802,46.73806],[0.87715,46.73843],[0.87827,46.74044]]]}}
